ONEWEB-0306             
1 49188U 21083C   24037.33837941  .00000037  00000+0  61575-4 0  9995
2 49188  87.9246 146.9570 0001847 115.4171 244.7152 13.18683782116437
ONEWEB-0307             
1 49189U 21083D   24037.28621679 -.00000241  00000+0 -69549-3 0  9996
2 49189  87.9008 131.8189 0001721 106.0505 254.0814 13.13469877117781
ONEWEB-0320             
1 49190U 21083E   24037.34471319  .00000077  00000+0  16147-3 0  9990
2 49190  87.9247 146.9781 0001683 103.4899 256.6421 13.18686382116392
ONEWEB-0321             
1 49191U 21083F   24037.54320112  .00000052  00000+0  96926-4 0  9994
2 49191  87.9152  85.9445 0002162  92.7630 267.3751 13.20771253123098
ONEWEB-0322             
1 49192U 21083G   24037.28146374 -.00000233  00000+0 -67280-3 0  9995
2 49192  87.9011 131.8086 0001955  91.6057 268.5296 13.13468816117770
ONEWEB-0324             
1 49193U 21083H   24037.33048436  .00000112  00000+0  25107-3 0  9998
2 49193  87.9247 146.9635 0001356 101.9811 258.1473 13.18686512116419
ONEWEB-0325             
1 49194U 21083J   24037.33523198  .00000130  00000+0  29755-3 0  9995
2 49194  87.9247 146.9753 0001739 105.3781 254.7543 13.18681471116420
ONEWEB-0326             
1 49195U 21083K   24037.34945408  .00000077  00000+0  16260-3 0  9996
2 49195  87.9246 146.9743 0001418 128.3354 231.7906 13.18687740116416
